IRIDIUM 154             
1 43574U 18061F   26156.09188026  .00000091  00000+0  25558-4 0  9991
2 43574  86.3969  61.8635 0002042  86.2963 273.8467 14.34217485411672
IRIDIUM 163             
1 43575U 18061G   26155.16586057  .00000098  00000+0  27859-4 0  9998
2 43575  86.3968  62.1661 0002355  84.7398 275.4066 14.34218549411515
IRIDIUM 156             
1 43576U 18061H   26156.25678862  .00000230  00000+0  75094-4 0  9998
2 43576  86.3966  61.7176 0002164  79.9500 280.1940 14.34217912411662
IRIDIUM 164             
1 43577U 18061J   26155.74937830  .00000233  00000+0  76150-4 0  9992
2 43577  86.3967  61.9699 0002081  89.7067 270.4367 14.34216843411635
IRIDIUM 159             
1 43578U 18061K   26155.71766794  .00000006  00000+0 -48428-5 0  9996
2 43578  86.3963  61.9200 0002189  85.6924 274.4522 14.34217350411592
IRIDIUM 180             
1 43922U 19002A   26156.27531215  .00000026  00000+0  23346-5 0  9998
2 43922  86.3973 358.5783 0002242  89.0380 271.1073 14.34217710387284
IRIDIUM 176             
1 43923U 19002B   26155.10918546  .00000926  00000+0  14304-3 0  9997
2 43923  86.6094 359.0116 0002067  84.8735 275.2718 14.72250537397323
IRIDIUM 168             
1 43924U 19002C   26156.26896955 -.00000009  00000+0 -10440-4 0  9997
2 43924  86.3973 358.6583 0002073  89.8467 270.2966 14.34217315387261
IRIDIUM 173             
1 43925U 19002D   26156.25628138  .00000158  00000+0  49476-4 0  9997
2 43925  86.3971 358.5521 0002233  86.2879 273.8572 14.34219150387246
IRIDIUM 169             
1 43926U 19002E   26156.07998283  .00000331  00000+0  10167-3 0  9996
2 43926  86.4236  30.2551 0002279  69.9805 290.1639 14.38608778388481
IRIDIUM 172             
1 43927U 19002F   26156.04063623  .00000039  00000+0  69772-5 0  9998
2 43927  86.3973 358.6507 0002280  89.5609 270.5848 14.34217661387227
IRIDIUM 175             
1 43928U 19002G   26156.14571223  .00000348  00000+0  96822-4 0  9998
2 43928  86.4504 295.5558 0001058 243.5193 116.5900 14.43605730397245
IRIDIUM 171             
1 43929U 19002H   26156.09137635  .00000019  00000+0 -14927-6 0  9992
2 43929  86.3978 358.9340 0001911  86.1136 274.0279 14.34217525387226
IRIDIUM 170             
1 43930U 19002J   26155.11537060  .00000251  00000+0  35948-4 0  9993
2 43930  86.6099 359.0117 0002366  87.6012 272.5476 14.72248600397338
IRIDIUM 167             
1 43931U 19002K   26156.29433896  .00000018  00000+0 -67884-6 0  9994
2 43931  86.3974 358.5667 0001887  84.6711 275.4700 14.34217605387253
IRIDIUM 181             
1 56726U 23068S   26155.69649590  .00000379  00000+0  10660-3 0  9996
2 56726  86.4503  62.0112 0002262  88.7980 271.3480 14.43307636160636
IRIDIUM 177             
1 56727U 23068T   26156.01903997  .00000489  00000+0  60813-4 0  9996
2 56727  86.1958 334.5722 0002435  86.4963 273.6537 14.80230899164561
IRIDIUM 174             
1 56728U 23068U   26155.10300935 -.00000014  00000+0 -62114-5 0  9992
2 56728  86.6101 359.1625 0002485  89.3509 270.7993 14.72251410164090
IRIDIUM 178             
1 56729U 23068V   26156.07576706  .00001069  00000+0  13718-3 0  9994
2 56729  86.6547  30.4218 0002495  88.9380 271.2128 14.80245362164572
IRIDIUM 179             
1 56730U 23068W   26155.66480721  .00001187  00000+0  15277-3 0  9994
2 56730  86.6785  39.5356 0002336  85.6761 274.4728 14.80241824164516
